ONEWEB-0424             
1 50497U 21132AE  23292.90601307 -.00000009  00000+0 -55130-4 0  9996
2 50497  87.9190 168.6441 0001143  72.7016 287.4241 13.18688830 94910
ONEWEB-0426             
1 50498U 21132AF  23292.18519347  .00000020  00000+0  17896-4 0  9997
2 50498  87.9265 168.8115 0001990  98.6646 261.4711 13.18685840 93483
ONEWEB-0427             
1 50499U 21132AG  23292.90390891  .00000036  00000+0  57961-4 0  9993
2 50499  87.9192 168.6485 0001591  87.7576 272.3738 13.18684942 94909
ONEWEB-0429             
1 50500U 21132AH  23292.66364312 -.00000062  00000+0 -19113-3 0  9995
2 50500  87.9253 168.6966 0001690  71.2599 288.8716 13.18682565 94836
ONEWEB-0430             
1 50501U 21132AJ  23292.19784185  .00000019  00000+0  15567-4 0  9998
2 50501  87.9270 168.7873 0001524  72.7416 287.3883 13.18683525 93525
ONEWEB-0432             
1 50502U 21132AK  23292.60883957  .00000044  00000+0  78245-4 0  9992
2 50502  87.9188 168.7037 0001672  74.4325 285.6991 13.18687026 94834
ONEWEB-0440             
1 50503U 21132AL  23292.89969626  .00000076  00000+0  16010-3 0  9998
2 50503  87.9197 168.6613 0002363  75.3001 284.8393 13.18684940 94854
ONEWEB-0450             
1 50504U 21132AM  23292.66575006 -.00000013  00000+0 -64554-4 0  9999
2 50504  87.9238 168.7220 0001793  62.8857 297.2458 13.18687450 94851
